ORBCOMM FM20            
1 25416U 98046D   25319.36035509  .00001626  00000+0  58401-3 0  9991
2 25416  44.9922 185.1798 0001454   2.0884 357.9970 14.37578921426015
ORBCOMM FM16            
1 25417U 98046E   25319.44919197  .00002383  00000+0  80356-3 0  9990
2 25417  44.9915 174.2793 0004702 350.1118   9.9638 14.39420654426047
ORBCOMM FM15            
1 25418U 98046F   25319.32454374  .00002030  00000+0  69662-3 0  9995
2 25418  44.9947 180.4760 0004530 349.7230  10.3525 14.39046505426011
ORBCOMM FM14            
1 25419U 98046G   25318.67798132  .00002529  00000+0  84946-3 0  9991
2 25419  44.9936 181.3322 0003270 345.6296  14.4459 14.39450240425892
ORBCOMM FM13            
1 25420U 98046H   25319.34368587  .00001855  00000+0  65287-3 0  9993
2 25420  44.9956 187.6625 0005376 326.5377  33.5131 14.38101516424995
ORBCOMM FM21            
1 25475U 98053A   25318.62249867  .00002214  00000+0  77623-3 0  9997
2 25475  45.0076 276.9165 0003289 287.3093  72.7396 14.37713143418895
ORBCOMM FM22            
1 25476U 98053B   25317.92114420  .00003725  00000+0  12443-2 0  9992
2 25476  45.0067 273.8348 0004771 277.7000  82.3306 14.38862156418835
ORBCOMM FM23            
1 25477U 98053C   25318.60222499  .00002488  00000+0  86241-3 0  9998
2 25477  45.0073 278.9037 0004140 278.4630  81.5748 14.37941562419044
